STARLINK-30598          
1 58079U 23160E   26064.83334490 -.00009738  00000+0 -34479-3 0  9991
2 58079  43.0005  99.6310 0001101 261.6908 198.6393 15.27582864  5828
STARLINK-30603          
1 58080U 23160F   26064.83334490 -.00000354  00000+0 -35174-5 0  9993
2 58080  43.0005  99.6206 0001346 279.0306 185.2961 15.26751371  5823
STARLINK-30602          
1 58081U 23160G   26064.83334490 -.00009323  00000+0 -38026-3 0  9996
2 58081  43.0011  99.8025 0001267 286.4368  95.0040 15.22881704  5819
STARLINK-30610          
1 58082U 23160H   26064.83334490 -.00008954  00000+0 -32449-3 0  9999
2 58082  43.0007  99.6700 0001212 268.1324 174.5625 15.26743750  5670
STARLINK-30551          
1 58083U 23160J   26064.41031377  .00000860  00000+0  78683-4 0  9999
2 58083  42.9990 103.5466 0000767 282.6465  77.4292 15.02542580132275
STARLINK-30586          
1 58084U 23160K   26064.14107342  .00002184  00000+0  17675-3 0  9990
2 58084  43.0080 104.9792 0000963 260.1782  99.8952 15.02519182132235
STARLINK-30609          
1 58085U 23160L   26064.47013258  .00000056  00000+0  19246-4 0  9992
2 58085  43.0022 103.1404 0001412 269.3128  90.7553 15.02531843132288
STARLINK-30583          
1 58086U 23160M   26064.40032360  .00011489  00000+0  86382-3 0  9997
2 58086  42.9991 103.4807 0000628 274.4300  85.6471 15.02551169132273
STARLINK-30557          
1 58087U 23160N   26064.13330014  .00000585  00000+0  58386-4 0  9994
2 58087  43.0013 104.9128 0001044 228.7657 131.3096 15.02535752132231
STARLINK-30591          
1 58088U 23160P   26064.83334490 -.00006637  00000+0 -23786-3 0  9995
2 58088  42.9994  99.3511 0000735 271.1120 304.9267 15.26754087  5815
STARLINK-30584          
1 58089U 23160Q   26064.83334490  .00024389  00000+0  89255-3 0  9991
2 58089  43.0000  99.5399 0003210 196.0520 299.6587 15.27589434  5764
STARLINK-30590          
1 58090U 23160R   26064.46347190  .00000496  00000+0  51776-4 0  9994
2 58090  43.0026 103.0908 0001225 273.9226  86.1476 15.02535460132280
STARLINK-30608          
1 58091U 23160S   26064.83334490 -.00014406  00000+0 -52822-3 0  9995
2 58091  42.9996  99.4124 0001264 249.3387 300.0342 15.26751536  5763
STARLINK-30615          
1 58092U 23160T   26064.83334490  .00034707  00000+0  13014-2 0  9999
2 58092  43.0005  99.8348 0001284 255.5012 114.3992 15.26639886  5811
STARLINK-30578          
1 58093U 23160U   26064.83334490 -.00010844  00000+0 -38504-3 0  9990
2 58093  42.9999  99.5157 0001064 261.7890 241.0055 15.27586966  5769
STARLINK-30574          
1 58094U 23160V   26064.83334490 -.00014664  00000+0 -53776-3 0  9993
2 58094  42.9998  99.4478 0001123 259.5559 274.1388 15.26759845  5412
STARLINK-30570          
1 58095U 23160W   26064.83334490  .01626057  00000+0  57579-1 0  9991
2 58095  42.9994  99.4867 0001326 251.4377 265.7756 15.25165796  5662
