[{"OBJECT_NAME":"STARLINK-30598","OBJECT_ID":"2023-160E","EPOCH":"2026-03-05T20:00:00.999360","MEAN_MOTION":15.27582864,"ECCENTRICITY":0.0001101,"INCLINATION":43.0005,"RA_OF_ASC_NODE":99.631,"ARG_OF_PERICENTER":261.6908,"MEAN_ANOMALY":198.6393,"EPHEMERIS_TYPE":0,"CLASSIFICATION_TYPE":"U","NORAD_CAT_ID":58079,"ELEMENT_SET_NO":999,"REV_AT_EPOCH":582,"BSTAR":-0.00034479,"MEAN_MOTION_DOT":-9.738e-5,"MEAN_MOTION_DDOT":0},{"OBJECT_NAME":"STARLINK-30603","OBJECT_ID":"2023-160F","EPOCH":"2026-03-05T20:00:00.999360","MEAN_MOTION":15.26751371,"ECCENTRICITY":0.0001346,"INCLINATION":43.0005,"RA_OF_ASC_NODE":99.6206,"ARG_OF_PERICENTER":279.0306,"MEAN_ANOMALY":185.2961,"EPHEMERIS_TYPE":0,"CLASSIFICATION_TYPE":"U","NORAD_CAT_ID":58080,"ELEMENT_SET_NO":999,"REV_AT_EPOCH":582,"BSTAR":-3.5174e-6,"MEAN_MOTION_DOT":-3.54e-6,"MEAN_MOTION_DDOT":0},{"OBJECT_NAME":"STARLINK-30602","OBJECT_ID":"2023-160G","EPOCH":"2026-03-05T20:00:00.999360","MEAN_MOTION":15.22881704,"ECCENTRICITY":0.0001267,"INCLINATION":43.0011,"RA_OF_ASC_NODE":99.8025,"ARG_OF_PERICENTER":286.4368,"MEAN_ANOMALY":95.004,"EPHEMERIS_TYPE":0,"CLASSIFICATION_TYPE":"U","NORAD_CAT_ID":58081,"ELEMENT_SET_NO":999,"REV_AT_EPOCH":581,"BSTAR":-0.00038026,"MEAN_MOTION_DOT":-9.323e-5,"MEAN_MOTION_DDOT":0},{"OBJECT_NAME":"STARLINK-30610","OBJECT_ID":"2023-160H","EPOCH":"2026-03-05T20:00:00.999360","MEAN_MOTION":15.2674375,"ECCENTRICITY":0.0001212,"INCLINATION":43.0007,"RA_OF_ASC_NODE":99.67,"ARG_OF_PERICENTER":268.1324,"MEAN_ANOMALY":174.5625,"EPHEMERIS_TYPE":0,"CLASSIFICATION_TYPE":"U","NORAD_CAT_ID":58082,"ELEMENT_SET_NO":999,"REV_AT_EPOCH":567,"BSTAR":-0.00032449,"MEAN_MOTION_DOT":-8.954e-5,"MEAN_MOTION_DDOT":0},{"OBJECT_NAME":"STARLINK-30551","OBJECT_ID":"2023-160J","EPOCH":"2026-03-05T09:50:51.109728","MEAN_MOTION":15.0254258,"ECCENTRICITY":7.67e-5,"INCLINATION":42.999,"RA_OF_ASC_NODE":103.5466,"ARG_OF_PERICENTER":282.6465,"MEAN_ANOMALY":77.4292,"EPHEMERIS_TYPE":0,"CLASSIFICATION_TYPE":"U","NORAD_CAT_ID":58083,"ELEMENT_SET_NO":999,"REV_AT_EPOCH":13227,"BSTAR":7.8683e-5,"MEAN_MOTION_DOT":8.6e-6,"MEAN_MOTION_DDOT":0},{"OBJECT_NAME":"STARLINK-30586","OBJECT_ID":"2023-160K","EPOCH":"2026-03-05T03:23:08.743488","MEAN_MOTION":15.02519182,"ECCENTRICITY":9.632e-5,"INCLINATION":43.008,"RA_OF_ASC_NODE":104.9792,"ARG_OF_PERICENTER":260.1782,"MEAN_ANOMALY":99.8952,"EPHEMERIS_TYPE":0,"CLASSIFICATION_TYPE":"U","NORAD_CAT_ID":58084,"ELEMENT_SET_NO":999,"REV_AT_EPOCH":13223,"BSTAR":0.00017674784,"MEAN_MOTION_DOT":2.184e-5,"MEAN_MOTION_DDOT":0},{"OBJECT_NAME":"STARLINK-30609","OBJECT_ID":"2023-160L","EPOCH":"2026-03-05T11:16:59.454912","MEAN_MOTION":15.02531843,"ECCENTRICITY":0.0001412,"INCLINATION":43.0022,"RA_OF_ASC_NODE":103.1404,"ARG_OF_PERICENTER":269.3128,"MEAN_ANOMALY":90.7553,"EPHEMERIS_TYPE":0,"CLASSIFICATION_TYPE":"U","NORAD_CAT_ID":58085,"ELEMENT_SET_NO":999,"REV_AT_EPOCH":13228,"BSTAR":1.9246e-5,"MEAN_MOTION_DOT":5.6e-7,"MEAN_MOTION_DDOT":0},{"OBJECT_NAME":"STARLINK-30583","OBJECT_ID":"2023-160M","EPOCH":"2026-03-05T09:36:27.959040","MEAN_MOTION":15.02551169,"ECCENTRICITY":6.28e-5,"INCLINATION":42.9991,"RA_OF_ASC_NODE":103.4807,"ARG_OF_PERICENTER":274.43,"MEAN_ANOMALY":85.6471,"EPHEMERIS_TYPE":0,"CLASSIFICATION_TYPE":"U","NORAD_CAT_ID":58086,"ELEMENT_SET_NO":999,"REV_AT_EPOCH":13227,"BSTAR":0.00086382,"MEAN_MOTION_DOT":0.00011489,"MEAN_MOTION_DDOT":0},{"OBJECT_NAME":"STARLINK-30557","OBJECT_ID":"2023-160N","EPOCH":"2026-03-05T03:11:57.132096","MEAN_MOTION":15.02535752,"ECCENTRICITY":0.00010445,"INCLINATION":43.0013,"RA_OF_ASC_NODE":104.9128,"ARG_OF_PERICENTER":228.7657,"MEAN_ANOMALY":131.3096,"EPHEMERIS_TYPE":0,"CLASSIFICATION_TYPE":"U","NORAD_CAT_ID":58087,"ELEMENT_SET_NO":999,"REV_AT_EPOCH":13223,"BSTAR":5.8385934e-5,"MEAN_MOTION_DOT":5.85e-6,"MEAN_MOTION_DDOT":0},{"OBJECT_NAME":"STARLINK-30591","OBJECT_ID":"2023-160P","EPOCH":"2026-03-05T20:00:00.999360","MEAN_MOTION":15.26754087,"ECCENTRICITY":7.35e-5,"INCLINATION":42.9994,"RA_OF_ASC_NODE":99.3511,"ARG_OF_PERICENTER":271.112,"MEAN_ANOMALY":304.9267,"EPHEMERIS_TYPE":0,"CLASSIFICATION_TYPE":"U","NORAD_CAT_ID":58088,"ELEMENT_SET_NO":999,"REV_AT_EPOCH":581,"BSTAR":-0.00023786,"MEAN_MOTION_DOT":-6.637e-5,"MEAN_MOTION_DDOT":0},{"OBJECT_NAME":"STARLINK-30584","OBJECT_ID":"2023-160Q","EPOCH":"2026-03-05T20:00:00.999360","MEAN_MOTION":15.27589434,"ECCENTRICITY":0.000321,"INCLINATION":43,"RA_OF_ASC_NODE":99.5399,"ARG_OF_PERICENTER":196.052,"MEAN_ANOMALY":299.6587,"EPHEMERIS_TYPE":0,"CLASSIFICATION_TYPE":"U","NORAD_CAT_ID":58089,"ELEMENT_SET_NO":999,"REV_AT_EPOCH":576,"BSTAR":0.00089255,"MEAN_MOTION_DOT":0.00024389,"MEAN_MOTION_DDOT":0},{"OBJECT_NAME":"STARLINK-30590","OBJECT_ID":"2023-160R","EPOCH":"2026-03-05T11:07:23.972160","MEAN_MOTION":15.0253546,"ECCENTRICITY":0.0001225,"INCLINATION":43.0026,"RA_OF_ASC_NODE":103.0908,"ARG_OF_PERICENTER":273.9226,"MEAN_ANOMALY":86.1476,"EPHEMERIS_TYPE":0,"CLASSIFICATION_TYPE":"U","NORAD_CAT_ID":58090,"ELEMENT_SET_NO":999,"REV_AT_EPOCH":13228,"BSTAR":5.1776e-5,"MEAN_MOTION_DOT":4.96e-6,"MEAN_MOTION_DDOT":0},{"OBJECT_NAME":"STARLINK-30608","OBJECT_ID":"2023-160S","EPOCH":"2026-03-05T20:00:00.999360","MEAN_MOTION":15.26751536,"ECCENTRICITY":0.0001264,"INCLINATION":42.9996,"RA_OF_ASC_NODE":99.4124,"ARG_OF_PERICENTER":249.3387,"MEAN_ANOMALY":300.0342,"EPHEMERIS_TYPE":0,"CLASSIFICATION_TYPE":"U","NORAD_CAT_ID":58091,"ELEMENT_SET_NO":999,"REV_AT_EPOCH":576,"BSTAR":-0.00052822,"MEAN_MOTION_DOT":-0.00014406,"MEAN_MOTION_DDOT":0},{"OBJECT_NAME":"STARLINK-30615","OBJECT_ID":"2023-160T","EPOCH":"2026-03-05T20:00:00.999360","MEAN_MOTION":15.26639886,"ECCENTRICITY":0.0001284,"INCLINATION":43.0005,"RA_OF_ASC_NODE":99.8348,"ARG_OF_PERICENTER":255.5012,"MEAN_ANOMALY":114.3992,"EPHEMERIS_TYPE":0,"CLASSIFICATION_TYPE":"U","NORAD_CAT_ID":58092,"ELEMENT_SET_NO":999,"REV_AT_EPOCH":581,"BSTAR":0.0013014,"MEAN_MOTION_DOT":0.00034707,"MEAN_MOTION_DDOT":0},{"OBJECT_NAME":"STARLINK-30578","OBJECT_ID":"2023-160U","EPOCH":"2026-03-05T20:00:00.999360","MEAN_MOTION":15.27586966,"ECCENTRICITY":0.0001064,"INCLINATION":42.9999,"RA_OF_ASC_NODE":99.5157,"ARG_OF_PERICENTER":261.789,"MEAN_ANOMALY":241.0055,"EPHEMERIS_TYPE":0,"CLASSIFICATION_TYPE":"U","NORAD_CAT_ID":58093,"ELEMENT_SET_NO":999,"REV_AT_EPOCH":576,"BSTAR":-0.00038504,"MEAN_MOTION_DOT":-0.00010844,"MEAN_MOTION_DDOT":0},{"OBJECT_NAME":"STARLINK-30574","OBJECT_ID":"2023-160V","EPOCH":"2026-03-05T20:00:00.999360","MEAN_MOTION":15.26759845,"ECCENTRICITY":0.0001123,"INCLINATION":42.9998,"RA_OF_ASC_NODE":99.4478,"ARG_OF_PERICENTER":259.5559,"MEAN_ANOMALY":274.1388,"EPHEMERIS_TYPE":0,"CLASSIFICATION_TYPE":"U","NORAD_CAT_ID":58094,"ELEMENT_SET_NO":999,"REV_AT_EPOCH":541,"BSTAR":-0.00053776,"MEAN_MOTION_DOT":-0.00014664,"MEAN_MOTION_DDOT":0},{"OBJECT_NAME":"STARLINK-30570","OBJECT_ID":"2023-160W","EPOCH":"2026-03-05T20:00:00.999360","MEAN_MOTION":15.25165796,"ECCENTRICITY":0.0001326,"INCLINATION":42.9994,"RA_OF_ASC_NODE":99.4867,"ARG_OF_PERICENTER":251.4377,"MEAN_ANOMALY":265.7756,"EPHEMERIS_TYPE":0,"CLASSIFICATION_TYPE":"U","NORAD_CAT_ID":58095,"ELEMENT_SET_NO":999,"REV_AT_EPOCH":566,"BSTAR":0.057579,"MEAN_MOTION_DOT":0.01626057,"MEAN_MOTION_DDOT":0}]
